OBJECT_NAME,OBJECT_ID,EPOCH,MEAN_MOTION,ECCENTRICITY,INCLINATION,RA_OF_ASC_NODE,ARG_OF_PERICENTER,MEAN_ANOMALY,EPHEMERIS_TYPE,CLASSIFICATION_TYPE,NORAD_CAT_ID,ELEMENT_SET_NO,REV_AT_EPOCH,BSTAR,MEAN_MOTION_DOT,MEAN_MOTION_DDOT
LEMUR-1,2014-033AL,2026-07-23T22:35:59.864640,14.85357060,.0047116,97.7919,353.9419,318.7930,40.9732,0,U,40044,999,65092,.178541E-3,.151E-4,0
LEMUR-2-GREENBERG,2017-042N,2026-07-24T06:07:14.482272,15.32391805,.0007754,97.3837,25.7425,222.5049,137.5593,0,U,42837,999,49406,.7105428E-3,.22204E-3,0
LEMUR-2-ANDIS,2017-042P,2026-07-23T17:44:51.254304,15.36203727,.00076593,97.3690,25.5454,223.6728,136.3911,0,U,42838,999,49406,.57884671E-3,.2039E-3,0
LEMUR-2-MONSON,2017-042Q,2026-07-24T00:26:04.036128,15.28956856,.00059016,97.4101,25.4199,209.6714,150.4192,0,U,42839,999,49379,.56525042E-3,.15847E-3,0
LEMUR-2-FURIAUS,2017-042R,2026-07-24T00:18:08.603712,15.31360794,.00056103,97.3784,23.3730,291.8646,68.1998,0,U,42840,999,49384,.5527816E-3,.16691E-3,0
LEMUR-2-PETERG,2017-042S,2026-07-24T01:42:37.483488,15.35317834,.00039914,97.4003,30.2030,185.1293,174.9910,0,U,42841,999,49409,.82807978E-3,.28399E-3,0
LEMUR-2-DEMBITZ,2017-042T,2026-07-24T07:03:11.393568,15.31341653,.00054253,97.3836,26.7027,234.2621,125.8116,0,U,42842,999,49402,.68660159E-3,.20748E-3,0
LEMUR-2-ZACHARY,2017-042W,2026-07-24T01:44:56.374080,15.53442575,.00031391,97.3578,37.5774,211.3550,148.7517,0,U,42845,999,49492,.11429196E-2,.72876E-3,0
LEMUR-2-AMANDA-SVANTE,2021-034B,2026-07-24T04:18:26.598528,15.36434932,.0004653,97.5744,284.4958,123.4081,236.7608,0,U,48269,999,28673,.13588128E-2,.48476E-3,0
LEMUR-2-SPECIAL-K,2021-034F,2026-07-24T05:16:03.575712,15.79107732,.00058739,97.5616,295.1348,214.6536,145.4349,0,U,48273,999,28750,.23223312E-2,.433069E-2,0
LEMUR-2-EMBRIONOVIS,2023-084AQ,2026-07-23T09:01:37.961184,15.38397436,.0008967,97.6330,349.9973,176.9139,183.2162,0,U,56970,999,17324,.37474E-3,.1413E-3,0
LEMUR-2-DEVERILL-M-T,2023-100F,2026-07-24T03:00:19.497888,15.41462032,.00050587,99.4454,254.6041,260.6337,99.4332,0,U,57391,999,16693,.8600824E-3,.36043E-3,0
LEMUR-2-BASS,2023-174D,2026-07-24T05:22:03.641664,15.44244075,.00070201,97.3838,290.4823,49.6299,310.5561,0,U,58259,999,15107,.48954073E-3,.22462E-3,0
LEMUR-2-JK0903EM1407,2023-174CJ,2026-07-24T04:51:56.879424,15.53464048,.00029007,97.3918,296.7641,353.1256,6.9957,0,U,58336,999,15147,.55190247E-3,.35E-3,0
LEMUR-2-MJR092620,2023-174CN,2026-07-24T06:10:56.635680,15.46140117,.00044632,97.3969,296.0026,355.3462,4.7745,0,U,58340,999,15137,.50316368E-3,.24623E-3,0
LEMUR-2-NIMBUS2000,2024-022A,2026-07-24T02:21:31.677984,15.41425449,.00077278,97.4082,55.5949,356.9543,3.1655,0,U,58899,999,13795,.68451619E-3,.28637E-3,0
LEMUR-2-VALHALLA,2024-022B,2026-07-24T05:41:05.737344,15.40714273,.00082359,97.4081,55.6964,351.3983,8.7121,0,U,58900,999,13797,.48340688E-3,.19708E-3,0
LEMUR-2-CAEL,2024-022E,2026-07-24T03:35:18.881376,15.42101185,.00061593,97.4061,56.6108,335.0470,25.0479,0,U,58903,999,13803,.52029895E-3,.22214E-3,0
LEMUR-2-JOHNNYTRUONG,2024-043BA,2026-07-23T23:45:26.770752,15.63154673,.00035317,97.5398,359.0554,64.2787,295.8835,0,U,59146,999,13378,.45583125E-3,.41602E-3,0
LEMUR-2-TOMATOKECHUP,2024-149D,2026-07-24T05:32:53.462112,15.36735822,.00034446,97.3789,287.3880,106.0558,254.1066,0,U,60471,999,10785,.39145503E-3,.13979E-3,0
LEMUR-2-STELLA,2024-149BT,2026-07-24T04:53:34.856160,15.12524953,.0001441,97.6726,287.8376,123.7572,236.3796,0,U,60533,999,10609,.83555948E-3,.14509E-3,0
LEMUR-2-MARHISYAM,2024-149BW,2026-07-24T04:45:37.764000,15.11913333,.00018283,97.6869,288.3175,51.9281,308.2113,0,U,60536,999,10607,.76497616E-3,.13051E-3,0
LEMUR-2-AHMED-ASRAR,2024-149DN,2026-07-24T04:41:50.164800,15.13467533,.00019737,97.6995,290.5541,179.5016,180.6217,0,U,60576,999,10616,.92675627E-3,.16533E-3,0
LEMUR-2-LLOYD,2024-149DP,2026-07-24T05:28:50.611584,15.09888726,.00041047,97.6741,286.3916,48.2628,311.8951,0,U,60577,999,10598,.82600698E-3,.13332E-3,0
LEMUR-2-SQUIRRELCOMM,2024-149DQ,2026-07-24T03:56:55.741920,15.07526046,.00038365,97.6706,285.9661,285.9976,74.0829,0,U,60578,999,10597,.48675906E-3,.7333E-4,0
LEMUR-2-SIERRINI,2024-149DR,2026-07-24T03:54:08.250336,15.11665826,.00060064,97.6837,287.9344,66.8461,293.3401,0,U,60579,999,10604,.89351426E-3,.1516E-3,0
LEMUR-2-WILSON,2025-009CP,2026-07-24T04:03:12.742272,14.95307279,.00015218,97.7015,282.9851,270.6887,89.4160,0,U,62694,999,8288,.24210103E-3,.2611E-4,0
LEMUR-2-STAR-FOX,2025-009CR,2026-07-24T04:21:47.661696,15.02945070,.00013636,97.6909,286.5240,4.0216,356.1020,0,U,62696,999,8311,.74666636E-3,.9979E-4,0
LEMUR-2-ARIANNA,2025-009CU,2026-07-24T04:19:33.549888,15.02949623,.00017171,97.6852,286.2675,17.3891,342.7392,0,U,62699,999,8311,.75469958E-3,.10089E-3,0
LEMUR-2-ALISIA,2025-009DB,2026-07-24T05:12:45.437184,15.03281499,.00050763,97.6962,287.1476,106.6164,253.5619,0,U,62706,999,10572,.72381321E-3,.9761E-4,0
