{"epoch":1784902576,"count":18312,"objects":[{"id":"40044","name":"LEMUR 1","type":"PAYLOAD","l1":"1 40044U 14033AL  26204.94166510  .00001510  00000-0  17854-3 0  9994","l2":"2 40044  97.7919 353.9419 0047116 318.7930  40.9732 14.85357060650926"},{"id":"42837","name":"LEMUR 2 GREENBERG","type":"PAYLOAD","l1":"1 42837U 17042N   26205.25502873  .00022204  00000-0  71054-3 0  9995","l2":"2 42837  97.3837  25.7425 0007754 222.5049 137.5593 15.32391805494068"},{"id":"42838","name":"LEMUR 2 ANDIS","type":"PAYLOAD","l1":"1 42838U 17042P   26204.73948211  .00020390  00000-0  57885-3 0  9998","l2":"2 42838  97.3690  25.5454 0007659 223.6728 136.3911 15.36203727494066"},{"id":"42839","name":"LEMUR 2 MONSON","type":"PAYLOAD","l1":"1 42839U 17042Q   26205.01810227  .00015847  00000-0  56525-3 0  9997","l2":"2 42839  97.4101  25.4199 0005902 209.6714 150.4192 15.28956856493794"},{"id":"42840","name":"LEMUR 2 FURIAUS","type":"PAYLOAD","l1":"1 42840U 17042R   26205.01259958  .00016691  00000-0  55278-3 0  9999","l2":"2 42840  97.3784  23.3730 0005610 291.8646  68.1998 15.31360794493842"},{"id":"42841","name":"LEMUR 2 PETERG","type":"PAYLOAD","l1":"1 42841U 17042S   26205.07126717  .00028399  00000-0  82808-3 0  9999","l2":"2 42841  97.4003  30.2030 0003991 185.1293 174.9910 15.35317834494090"},{"id":"42842","name":"LEMUR 2 DEMBITZ","type":"PAYLOAD","l1":"1 42842U 17042T   26205.29388187  .00020748  00000-0  68660-3 0  9995","l2":"2 42842  97.3836  26.7027 0005425 234.2621 125.8116 15.31341653494023"},{"id":"42845","name":"LEMUR 2 ZACHARY","type":"PAYLOAD","l1":"1 42845U 17042W   26205.07287470  .00072876  00000-0  11429-2 0  9996","l2":"2 42845  97.3578  37.5774 0003139 211.3550 148.7517 15.53442575494922"},{"id":"48269","name":"LEMUR 2 AMANDA-SVANTE","type":"PAYLOAD","l1":"1 48269U 21034B   26205.17947452  .00048476  00000-0  13588-2 0  9999","l2":"2 48269  97.5744 284.4958 0004653 123.4081 236.7608 15.36434932286732"},{"id":"48273","name":"LEMUR 2 SPECIAL K","type":"PAYLOAD","l1":"1 48273U 21034F   26205.21948583  .00433069  00000-0  23223-2 0  9998","l2":"2 48273  97.5616 295.1348 0005874 214.6536 145.4349 15.79107732287507"},{"id":"56970","name":"LEMUR 2 EMBRIONOVIS","type":"PAYLOAD","l1":"1 56970U 23084AQ  26204.37613381  .00014130  00000-0  37474-3 0  9997","l2":"2 56970  97.6330 349.9973 0008967 176.9139 183.2162 15.38397436173246"},{"id":"57391","name":"LEMUR 2 DEVERILL-M-T","type":"PAYLOAD","l1":"1 57391U 23100F   26205.12522567  .00036043  00000-0  86008-3 0  9997","l2":"2 57391  99.4454 254.6041 0005059 260.6337  99.4332 15.41462032166933"},{"id":"58259","name":"LEMUR 2 BASS","type":"PAYLOAD","l1":"1 58259U 23174D   26205.22365326  .00022462  00000-0  48954-3 0  9999","l2":"2 58259  97.3838 290.4823 0007020  49.6299 310.5561 15.44244075151076"},{"id":"58336","name":"LEMUR 2 JK0903EM1407","type":"PAYLOAD","l1":"1 58336U 23174CJ  26205.20274166  .00035000  00000-0  55190-3 0  9996","l2":"2 58336  97.3918 296.7641 0002901 353.1256   6.9957 15.53464048151470"},{"id":"58340","name":"LEMUR 2 MJR092620","type":"PAYLOAD","l1":"1 58340U 23174CN  26205.25759995  .00024623  00000-0  50316-3 0  9998","l2":"2 58340  97.3969 296.0026 0004463 355.3462   4.7745 15.46140117151379"},{"id":"58899","name":"LEMUR 2 NIMBUS2000","type":"PAYLOAD","l1":"1 58899U 24022A   26205.09828331  .00028637  00000-0  68452-3 0  9992","l2":"2 58899  97.4082  55.5949 0007728 356.9543   3.1655 15.41425449137951"},{"id":"58900","name":"LEMUR 2 VALHALLA","type":"PAYLOAD","l1":"1 58900U 24022B   26205.23687196  .00019708  00000-0  48341-3 0  9997","l2":"2 58900  97.4081  55.6964 0008236 351.3983   8.7121 15.40714273137979"},{"id":"58903","name":"LEMUR 2 CAEL","type":"PAYLOAD","l1":"1 58903U 24022E   26205.14952409  .00022214  00000-0  52030-3 0  9998","l2":"2 58903  97.4061  56.6108 0006159 335.0470  25.0479 15.42101185138033"},{"id":"59146","name":"LEMUR 2 JOHNNYTRUONG","type":"PAYLOAD","l1":"1 59146U 24043BA  26204.98989318  .00041602  00000-0  45583-3 0  9998","l2":"2 59146  97.5398 359.0554 0003532  64.2787 295.8835 15.63154673133789"},{"id":"60471","name":"LEMUR 2 TOMATOKECHUP","type":"PAYLOAD","l1":"1 60471U 24149D   26205.23117433  .00013979  00000-0  39146-3 0  9992","l2":"2 60471  97.3789 287.3880 0003445 106.0558 254.1066 15.36735822107857"},{"id":"60533","name":"LEMUR 2 STELLA","type":"PAYLOAD","l1":"1 60533U 24149BT  26205.20387565  .00014509  00000-0  83556-3 0  9997","l2":"2 60533  97.6726 287.8376 0001441 123.7572 236.3796 15.12524953106093"},{"id":"60536","name":"LEMUR 2 MARHISYAM","type":"PAYLOAD","l1":"1 60536U 24149BW  26205.19835375  .00013051  00000-0  76498-3 0  9993","l2":"2 60536  97.6869 288.3175 0001828  51.9281 308.2113 15.11913333106078"},{"id":"60576","name":"LEMUR 2 AHMED-ASRAR","type":"PAYLOAD","l1":"1 60576U 24149DN  26205.19571950  .00016533  00000-0  92676-3 0  9997","l2":"2 60576  97.6995 290.5541 0001974 179.5016 180.6217 15.13467533106164"},{"id":"60577","name":"LEMUR 2 LLOYD","type":"PAYLOAD","l1":"1 60577U 24149DP  26205.22836356  .00013332  00000-0  82601-3 0  9997","l2":"2 60577  97.6741 286.3916 0004105  48.2628 311.8951 15.09888726105981"},{"id":"60578","name":"LEMUR 2 SQUIRRELCOMM","type":"PAYLOAD","l1":"1 60578U 24149DQ  26205.16453405  .00007333  00000-0  48676-3 0  9999","l2":"2 60578  97.6706 285.9661 0003836 285.9976  74.0829 15.07526046105974"},{"id":"60579","name":"LEMUR 2 SIERRINI","type":"PAYLOAD","l1":"1 60579U 24149DR  26205.16259549  .00015160  00000-0  89351-3 0  9995","l2":"2 60579  97.6837 287.9344 0006006  66.8461 293.3401 15.11665826106043"},{"id":"62694","name":"LEMUR 2 WILSON","type":"PAYLOAD","l1":"1 62694U 25009CP  26205.16889748  .00002611  00000-0  24210-3 0  9991","l2":"2 62694  97.7015 282.9851 0001522 270.6887  89.4160 14.95307279 82882"},{"id":"62696","name":"LEMUR 2 STAR-FOX","type":"PAYLOAD","l1":"1 62696U 25009CR  26205.18180164  .00009979  00000-0  74667-3 0  9996","l2":"2 62696  97.6909 286.5240 0001364   4.0216 356.1020 15.02945070 83118"},{"id":"62699","name":"LEMUR 2 ARIANNA","type":"PAYLOAD","l1":"1 62699U 25009CU  26205.18024942  .00010089  00000-0  75470-3 0  9997","l2":"2 62699  97.6852 286.2675 0001717  17.3891 342.7392 15.02949623 83116"},{"id":"62706","name":"LEMUR 2 ALISIA","type":"PAYLOAD","l1":"1 62706U 25009DB  26205.21719256  .00009761  00000-0  72381-3 0  9992","l2":"2 62706  97.6962 287.1476 0005076 106.6164 253.5619 15.03281499105727"}]}